XRISM                   
1 57800U 23137A   23292.55247790  .00005855  00000+0  47382-3 0  9992
2 57800  31.0022 107.0777 0010401 337.7330  22.2852 14.98285522  6307
